IRIDIUM 126             
1 42809U 17039G   25075.81599380  .00000805  00000+0  28027-3 0  9999
2 42809  86.4047 184.7736 0002326  92.6616 267.4846 14.34225556404409
IRIDIUM 124             
1 42810U 17039H   25075.60750873  .00000866  00000+0  25135-3 0  9998
2 42810  86.4471 121.6950 0002104  91.3149 268.8293 14.43286056409117
IRIDIUM 128             
1 42811U 17039J   25075.87651316 -.00000282  00000+0 -10781-3 0  9995
2 42811  86.4000 216.2126 0001758  87.3565 272.7832 14.34216137404439
IRIDIUM 121             
1 42812U 17039K   25075.55595315  .00000106  00000+0  30908-4 0  9994
2 42812  86.4050 184.9066 0001981  99.6508 260.4912 14.34221733404239
IRIDIUM 133             
1 42955U 17061A   25075.62915053  .00001183  00000+0  41540-3 0  9999
2 42955  86.3999 216.4215 0002046  90.8291 269.3139 14.34218229389192
IRIDIUM 100             
1 42956U 17061B   25075.62280721  .00000108  00000+0  31454-4 0  9997
2 42956  86.3993 216.3536 0002038  91.2135 268.9294 14.34218107389197
IRIDIUM 122             
1 42957U 17061C   25075.45155439  .00000597  00000+0  20628-3 0  9998
2 42957  86.3997 216.4231 0002105  87.2357 272.9080 14.34212496389172
IRIDIUM 129             
1 42958U 17061D   25075.82577237  .00000216  00000+0  69940-4 0  9993
2 42958  86.4005 216.3304 0002280 101.1587 258.9865 14.34216912389249
